{"type": "FeatureCollection", "_meta": {"event": "latest", "label": "Latest Sentinel-1 pass \u2014 Greater Metro Manila + Central Luzon", "role": "realtime", "gauged": false, "permanent_water_masked": true, "aoi_name": "Greater Metro Manila + Central Luzon (NCR, Bulacan, Pampanga, Rizal, Laguna, Cavite, Bataan \u2014 SLEX/NLEX corridor)", "bbox": [120.4, 14.0, 121.55, 15.4], "dates": [{"date": "2026-10-05", "flood_area_km2": 13.5, "otsu_threshold_db": -22.75, "n_polygons": 10}], "scan_status": "ok", "observed_not_forecast": true, "generated_at": "2026-10-07T23:07:22Z", "as_of": "2026-10-05", "lookback_days": 14, "baseline_days": 60, "s1_scene_ids": ["S1C_IW_GRDH_1SDV_20261005T214538_20261005T214603_009755_0136E4_34D1", "S1C_IW_GRDH_1SDV_20261005T214603_20261005T214628_009755_0136E4_0417"], "feature_count": 10, "method": "S1 VH: Otsu-on-VH + got-darker-vs-dry-baseline change gate + permanent-water + slope + HAND-style flood-plausible-terrain mask (identical to event/flood_extent.py), run on the latest usable S1 pass", "disclaimer": "Observed flood extent derived from public Sentinel-1 SAR. This is the most recent satellite pass (S1 revisit ~6\u201312 days), not a forecast and not live. Patterns may have legitimate explanations; figures warrant independent verification.", "otsu_threshold_db": -22.75, "orbit_pass": "DESCENDING", "relative_orbit": 32, "aoi_coverage": 0.9963}, "features": [{"type": "Feature", "geometry": {"geodesic": false, "type": "Polygon", "coordinates": [[[120.91117111733408, 15.158261935761232], [120.91332707401594, 15.158261935761232], [120.91332707401594, 15.159339914102176], [120.91656100903882, 15.159339914102176], [120.91656100903882, 15.160417892443121], [120.91763898737972, 15.160417892443121], [120.91763898737972, 15.16257384912501], [120.91871696572068, 15.16257384912501], [120.91871696572068, 15.163651827465955], [120.91656100903882, 15.163651827465955], [120.91656100903882, 15.161495870784066], [120.9144050523569, 15.161495870784066], [120.9144050523569, 15.163651827465955], [120.91332707401594, 15.163651827465955], [120.91332707401594, 15.165807784147844], [120.91763898737972, 15.165807784147844], [120.91763898737972, 15.167963740829734], [120.91117111733408, 15.169041719170664], [120.91117111733408, 15.167963740829734], [120.90901516065222, 15.167963740829734], [120.90901516065222, 15.16688576248879], [120.90470324728844, 15.16688576248879], [120.90470324728844, 15.167963740829734], [120.90254729060652, 15.167963740829734], [120.90254729060652, 15.165807784147844], [120.90146931226556, 15.165807784147844], [120.90146931226556, 15.161495870784066], [120.90362526894748, 15.161495870784066], [120.90362526894748, 15.16257384912501], [120.9068592039703, 15.16257384912501], [120.9068592039703, 15.159339914102176], [120.91117111733408, 15.159339914102176], [120.91117111733408, 15.158261935761232]]]}, "properties": {"date": "2026-10-05", "event": "latest"}}, {"type": "Feature", "geometry": {"geodesic": false, "type": "Polygon", "coordinates": [[[120.81738700167202, 15.159339914102176], [120.81846498001292, 15.159339914102176], [120.81846498001292, 15.160417892443121], [120.81738700167202, 15.160417892443121], [120.81846498001292, 15.16257384912501], [120.81415306664914, 15.16257384912501], [120.81415306664914, 15.16688576248879], [120.81630902333106, 15.167963740829734], [120.81630902333106, 15.170119697511609], [120.81199710996728, 15.169041719170664], [120.81199710996728, 15.167963740829734], [120.80984115328542, 15.167963740829734], [120.80984115328542, 15.165807784147844], [120.81307508830824, 15.163651827465955], [120.81307508830824, 15.16257384912501], [120.81415306664914, 15.16257384912501], [120.81415306664914, 15.161495870784066], [120.8152310449901, 15.161495870784066], [120.8152310449901, 15.159339914102176], [120.81738700167202, 15.160417892443121], [120.81738700167202, 15.159339914102176]]]}, "properties": {"date": "2026-10-05", "event": "latest"}}, {"type": "Feature", "geometry": {"geodesic": false, "type": "Polygon", "coordinates": [[[120.57807580998255, 14.863973848683685], [120.58346570168729, 14.863973848683685], [120.58454368002825, 14.866129805365574], [120.58777761505107, 14.866129805365574], [120.58777761505107, 14.86828576204745], [120.58346570168729, 14.867207783706505], [120.58346570168729, 14.866129805365574], [120.58130974500537, 14.866129805365574], [120.58130974500537, 14.867207783706505], [120.57915378832351, 14.867207783706505], [120.57915378832351, 14.869363740388394], [120.57807580998255, 14.869363740388394], [120.57807580998255, 14.86828576204745], [120.57591985330069, 14.86828576204745], [120.57591985330069, 14.867207783706505], [120.57807580998255, 14.867207783706505], [120.57807580998255, 14.863973848683685]]]}, "properties": {"date": "2026-10-05", "event": "latest"}}, {"type": "Feature", "geometry": {"geodesic": false, "type": "Polygon", "coordinates": [[[120.72791479937368, 14.873675653752173], [120.72899277771464, 14.873675653752173], [120.7311487343965, 14.876909588775007], [120.73222671273746, 14.876909588775007], [120.73222671273746, 14.874753632093118], [120.73546064776028, 14.874753632093118], [120.73546064776028, 14.875831610434062], [120.73330469107842, 14.876909588775007], [120.73330469107842, 14.879065545456882], [120.7311487343965, 14.877987567115952], [120.7311487343965, 14.879065545456882], [120.72791479937368, 14.879065545456882], [120.72791479937368, 14.873675653752173]], [[120.7311487343965, 14.876909588775007], [120.7311487343965, 14.877987567115952], [120.7300707560556, 14.877987567115952], [120.7300707560556, 14.876909588775007], [120.7311487343965, 14.876909588775007]]]}, "properties": {"date": "2026-10-05", "event": "latest"}}, {"type": "Feature", "geometry": {"geodesic": false, "type": "Polygon", "coordinates": [[[120.74947436619257, 15.110830888759722], [120.75163032287443, 15.110830888759722], [120.75163032287443, 15.11729875880539], [120.75270830121539, 15.11729875880539], [120.75270830121539, 15.118376737146335], [120.75163032287443, 15.118376737146335], [120.75163032287443, 15.11729875880539], [120.74947436619257, 15.11729875880539], [120.74947436619257, 15.116220780464445], [120.74624043116975, 15.116220780464445], [120.74624043116975, 15.114064823782556], [120.74947436619257, 15.114064823782556], [120.74947436619257, 15.110830888759722]]]}, "properties": {"date": "2026-10-05", "event": "latest"}}, {"type": "Feature", "geometry": {"geodesic": false, "type": "Polygon", "coordinates": [[[120.60394729016522, 14.89092330720726], [120.60610324684708, 14.89092330720726], [120.60610324684708, 14.895235220571038], [120.60394729016522, 14.895235220571038], [120.60286931182426, 14.897391177252928], [120.59963537680144, 14.897391177252928], [120.59963537680144, 14.895235220571038], [120.60071335514235, 14.895235220571038], [120.60071335514235, 14.894157242230094], [120.60394729016522, 14.894157242230094], [120.60394729016522, 14.89092330720726]]]}, "properties": {"date": "2026-10-05", "event": "latest"}}, {"type": "Feature", "geometry": {"geodesic": false, "type": "Polygon", "coordinates": [[[120.91871696572068, 15.18521139428482], [120.91979494406164, 15.18521139428482], [120.91979494406164, 15.1895233076486], [120.91763898737972, 15.188445329307655], [120.91763898737972, 15.1895233076486], [120.91332707401594, 15.1895233076486], [120.91332707401594, 15.186289372625765], [120.9144050523569, 15.186289372625765], [120.9144050523569, 15.18521139428482], [120.91548303069786, 15.18521139428482], [120.91548303069786, 15.186289372625765], [120.91656100903882, 15.186289372625765], [120.91656100903882, 15.188445329307655], [120.91763898737972, 15.188445329307655], [120.91763898737972, 15.18736735096671], [120.91871696572068, 15.18736735096671], [120.91871696572068, 15.18521139428482]]]}, "properties": {"date": "2026-10-05", "event": "latest"}}, {"type": "Feature", "geometry": {"geodesic": false, "type": "Polygon", "coordinates": [[[120.74731840951065, 15.039684318257457], [120.74947436619257, 15.040762296598402], [120.74947436619257, 15.041840274939347], [120.74839638785161, 15.041840274939347], [120.74839638785161, 15.042918253280291], [120.74947436619257, 15.042918253280291], [120.74947436619257, 15.04507420996218], [120.74624043116975, 15.04507420996218], [120.74624043116975, 15.046152188303125], [120.7451624528288, 15.046152188303125], [120.74408447448783, 15.043996231621236], [120.74839638785161, 15.041840274939347], [120.74731840951065, 15.039684318257457]]]}, "properties": {"date": "2026-10-05", "event": "latest"}}, {"type": "Feature", "geometry": {"geodesic": false, "type": "Polygon", "coordinates": [[[121.42213285094127, 14.402599118759895], [121.42428880762313, 14.402599118759895], [121.42428880762313, 14.404755075441784], [121.42321082928223, 14.404755075441784], [121.42428880762313, 14.406911032123674], [121.42213285094127, 14.405833053782729], [121.42213285094127, 14.404755075441784], [121.41997689425935, 14.405833053782729], [121.41997689425935, 14.40367709710084], [121.41782093757749, 14.40367709710084], [121.41782093757749, 14.402599118759895], [121.42105487260031, 14.402599118759895], [121.42105487260031, 14.40367709710084], [121.42213285094127, 14.40367709710084], [121.42213285094127, 14.402599118759895]]]}, "properties": {"date": "2026-10-05", "event": "latest"}}, {"type": "Feature", "geometry": {"geodesic": false, "type": "Polygon", "coordinates": [[[120.88314368046954, 15.283307423310674], [120.88529963715146, 15.284385401651619], [120.88529963715146, 15.287619336674453], [120.88098772378768, 15.287619336674453], [120.88098772378768, 15.285463379992564], [120.88314368046954, 15.284385401651619], [120.88314368046954, 15.283307423310674]]]}, "properties": {"date": "2026-10-05", "event": "latest"}}]}