{"type": "FeatureCollection", "_meta": {"event": "koppu_2015", "label": "Tropical Storm Koppu (Lando), GFD event 4300", "role": "validation", "gauged": true, "aoi_name": "Central Luzon (Nueva Ecija / Aurora / Pampanga)", "bbox": [120.4, 15.4, 121.8, 16.9], "permanent_water_masked": true, "method": "S1 VH: Otsu-on-VH + got-darker-vs-dry-baseline change gate + permanent-water + slope + HAND-style flood-plausible-terrain mask", "dates": [{"date": "2015-10-26", "flood_area_km2": 64.34, "otsu_threshold_db": -20.372, "n_polygons": 42}], "validation": {"gfd_event_id": 4300, "validation_date": "2015-10-26", "comparison": "vs GFD MODIS `flooded` at native 250 m, permanent water removed from both", "iou": 0.0608, "precision": 0.0854, "recall": 0.0606, "f1": 0.0709, "caveat": "The only Sentinel-1 acquisition is several days after GFD onset, and a single 10 m SAR pass is compared to a multi-day 250 m MODIS optical product. Low pixel IoU is the expected, documented limitation of this comparison, not a hidden one. Track A's product is the reproducible, permanent-water-masked observed-extent time series; Track B (event-disjoint) carries the trained-model claim."}}, "features": [{"type": "Feature", "geometry": {"geodesic": false, "type": "Polygon", "coordinates": [[[120.48285438986593, 15.744322827120797], [120.48644765100241, 15.744322827120797], [120.48644765100241, 15.746119457689034], [120.48824428157067, 15.746119457689034], [120.48644765100241, 15.74971271882552], [120.49004091213888, 15.74971271882552], [120.49183754270715, 15.746119457689034], [120.49902406498009, 15.746119457689034], [120.49902406498009, 15.747916088257284], [120.50261732611656, 15.747916088257284], [120.50261732611656, 15.746119457689034], [120.50441395668483, 15.746119457689034], [120.50441395668483, 15.747916088257284], [120.5080072178213, 15.747916088257284], [120.5080072178213, 15.751509349393757], [120.51339710952598, 15.751509349393757], [120.51339710952598, 15.74971271882552], [120.51519374009425, 15.74971271882552], [120.51519374009425, 15.753305979961993], [120.51699037066246, 15.753305979961993], [120.51699037066246, 15.75510261053023], [120.5080072178213, 15.75510261053023], [120.5080072178213, 15.75689924109848], [120.50441395668483, 15.75510261053023], [120.50441395668483, 15.75689924109848], [120.50261732611656, 15.75689924109848], [120.50261732611656, 15.751509349393757], [120.50441395668483, 15.751509349393757], [120.50441395668483, 15.74971271882552], [120.50082069554836, 15.74971271882552], [120.50082069554836, 15.75689924109848], [120.50261732611656, 15.75689924109848], [120.50261732611656, 15.758695871666717], [120.50082069554836, 15.758695871666717], [120.50082069554836, 15.760492502234953], [120.49722743441183, 15.760492502234953], [120.49722743441183, 15.76228913280319], [120.50082069554836, 15.76228913280319], [120.50082069554836, 15.765882393939663], [120.49543080384362, 15.765882393939663], [120.49543080384362, 15.760492502234953], [120.49363417327535, 15.760492502234953], [120.49363417327535, 15.764085763371426], [120.49183754270715, 15.764085763371426], [120.49183754270715, 15.765882393939663], [120.49363417327535, 15.765882393939663], [120.49363417327535, 15.773068916212623], [120.48285438986593, 15.773068916212623], [120.48285438986593, 15.767679024507913], [120.47926112872946, 15.767679024507913], [120.47926112872946, 15.764085763371426], [120.48105775929767, 15.764085763371426], [120.48105775929767, 15.758695871666717], [120.47926112872946, 15.758695871666717], [120.47926112872946, 15.75689924109848], [120.48644765100241, 15.75510261053023], [120.48644765100241, 15.753305979961993], [120.48285438986593, 15.753305979961993], [120.4846510204342, 15.74971271882552], [120.48285438986593, 15.74971271882552], [120.48105775929767, 15.753305979961993], [120.4774644981612, 15.753305979961993], [120.4774644981612, 15.751509349393757], [120.47387123702472, 15.751509349393757], [120.47387123702472, 15.747916088257284], [120.4774644981612, 15.747916088257284], [120.4774644981612, 15.74971271882552], [120.47926112872946, 15.74971271882552], [120.48105775929767, 15.746119457689034], [120.48285438986593, 15.746119457689034], [120.48285438986593, 15.744322827120797]], [[120.49004091213888, 15.764085763371426], [120.49004091213888, 15.765882393939663], [120.48824428157067, 15.765882393939663], [120.48824428157067, 15.764085763371426], [120.49004091213888, 15.764085763371426]], [[120.49902406498009, 15.75689924109848], [120.49902406498009, 15.758695871666717], [120.49543080384362, 15.758695871666717], [120.49543080384362, 15.75689924109848], [120.49902406498009, 15.75689924109848]], [[120.49183754270715, 15.75510261053023], [120.49183754270715, 15.75689924109848], [120.49004091213888, 15.75689924109848], [120.49004091213888, 15.75510261053023], [120.49183754270715, 15.75510261053023]], [[120.49004091213888, 15.751509349393757], [120.49004091213888, 15.753305979961993], [120.48824428157067, 15.753305979961993], [120.48824428157067, 15.751509349393757], [120.49004091213888, 15.751509349393757]], [[120.49363417327535, 15.751509349393757], [120.49363417327535, 15.753305979961993], [120.49183754270715, 15.753305979961993], [120.49183754270715, 15.751509349393757], [120.49363417327535, 15.751509349393757]]]}, "properties": {"date": "2015-10-26", "event": "koppu_2015"}}, {"type": "Feature", "geometry": {"geodesic": false, "type": "Polygon", "coordinates": [[[120.51699037066246, 15.75510261053023], [120.52058363179898, 15.75510261053023], [120.52058363179898, 15.75689924109848], [120.51878700123072, 15.75689924109848], [120.51878700123072, 15.76228913280319], [120.52058363179898, 15.76228913280319], [120.52058363179898, 15.764085763371426], [120.52417689293546, 15.764085763371426], [120.52417689293546, 15.76228913280319], [120.52597352350367, 15.76228913280319], [120.52597352350367, 15.76947565507615], [120.51878700123072, 15.767679024507913], [120.51878700123072, 15.765882393939663], [120.51699037066246, 15.765882393939663], [120.51699037066246, 15.760492502234953], [120.51519374009425, 15.760492502234953], [120.51519374009425, 15.765882393939663], [120.51699037066246, 15.765882393939663], [120.51519374009425, 15.76947565507615], [120.51878700123072, 15.767679024507913], [120.51878700123072, 15.771272285644386], [120.51339710952598, 15.771272285644386], [120.51339710952598, 15.773068916212623], [120.51160047895777, 15.773068916212623], [120.51160047895777, 15.767679024507913], [120.50980384838951, 15.767679024507913], [120.50980384838951, 15.771272285644386], [120.5080072178213, 15.771272285644386], [120.5080072178213, 15.773068916212623], [120.51160047895777, 15.773068916212623], [120.51160047895777, 15.774865546780859], [120.51339710952598, 15.774865546780859], [120.51339710952598, 15.773068916212623], [120.51699037066246, 15.773068916212623], [120.51878700123072, 15.77666217734911], [120.51699037066246, 15.77666217734911], [120.51699037066246, 15.778458807917346], [120.51519374009425, 15.778458807917346], [120.51519374009425, 15.77666217734911], [120.5080072178213, 15.77666217734911], [120.5080072178213, 15.780255438485582], [120.50621058725304, 15.780255438485582], [120.50621058725304, 15.778458807917346], [120.50261732611656, 15.778458807917346], [120.50261732611656, 15.780255438485582], [120.49902406498009, 15.780255438485582], [120.49902406498009, 15.774865546780859], [120.49722743441183, 15.774865546780859], [120.49722743441183, 15.782052069053819], [120.49543080384362, 15.782052069053819], [120.49543080384362, 15.767679024507913], [120.49722743441183, 15.767679024507913], [120.49722743441183, 15.771272285644386], [120.49902406498009, 15.771272285644386], [120.49902406498009, 15.767679024507913], [120.50261732611656, 15.767679024507913], [120.50261732611656, 15.773068916212623], [120.50621058725304, 15.773068916212623], [120.50621058725304, 15.771272285644386], [120.50441395668483, 15.771272285644386], [120.50441395668483, 15.767679024507913], [120.50261732611656, 15.767679024507913], [120.50261732611656, 15.76228913280319], [120.50621058725304, 15.764085763371426], [120.50621058725304, 15.76228913280319], [120.50441395668483, 15.76228913280319], [120.50441395668483, 15.758695871666717], [120.5080072178213, 15.760492502234953], [120.5080072178213, 15.75689924109848], [120.51160047895777, 15.75689924109848], [120.51160047895777, 15.758695871666717], [120.51519374009425, 15.75689924109848], [120.51519374009425, 15.758695871666717], [120.51699037066246, 15.758695871666717], [120.51699037066246, 15.75510261053023]], [[120.51339710952598, 15.764085763371426], [120.51339710952598, 15.765882393939663], [120.51160047895777, 15.765882393939663], [120.51160047895777, 15.764085763371426], [120.51339710952598, 15.764085763371426]], [[120.51160047895777, 15.760492502234953], [120.51160047895777, 15.76228913280319], [120.50980384838951, 15.76228913280319], [120.50980384838951, 15.760492502234953], [120.51160047895777, 15.760492502234953]]]}, "properties": {"date": "2015-10-26", "event": "koppu_2015"}}, {"type": "Feature", "geometry": {"geodesic": false, "type": "Polygon", "coordinates": [[[120.55292298202724, 15.695813801778343], [120.5547196125955, 15.695813801778343], [120.5547196125955, 15.69940706291483], [120.55112635145903, 15.69940706291483], [120.55112635145903, 15.704796954619539], [120.55292298202724, 15.704796954619539], [120.55292298202724, 15.706593585187775], [120.54932972089077, 15.706593585187775], [120.54932972089077, 15.703000324051303], [120.54393982918609, 15.703000324051303], [120.54393982918609, 15.704796954619539], [120.54214319861782, 15.704796954619539], [120.54214319861782, 15.69940706291483], [120.54393982918609, 15.69940706291483], [120.54393982918609, 15.701203693483066], [120.54753309032256, 15.701203693483066], [120.54753309032256, 15.69940706291483], [120.54932972089077, 15.69940706291483], [120.54932972089077, 15.697610432346579], [120.54393982918609, 15.697610432346579], [120.54393982918609, 15.695813801778343], [120.55112635145903, 15.695813801778343], [120.55112635145903, 15.697610432346579], [120.55292298202724, 15.697610432346579], [120.55292298202724, 15.695813801778343]]]}, "properties": {"date": "2015-10-26", "event": "koppu_2015"}}, {"type": "Feature", "geometry": {"geodesic": false, "type": "Polygon", "coordinates": [[[120.5223802623672, 15.747916088257284], [120.53316004577661, 15.74971271882552], [120.53316004577661, 15.753305979961993], [120.5313634152084, 15.753305979961993], [120.5313634152084, 15.75510261053023], [120.5223802623672, 15.75510261053023], [120.5223802623672, 15.751509349393757], [120.52417689293546, 15.751509349393757], [120.52417689293546, 15.74971271882552], [120.5223802623672, 15.74971271882552], [120.5223802623672, 15.747916088257284]]]}, "properties": {"date": "2015-10-26", "event": "koppu_2015"}}, {"type": "Feature", "geometry": {"geodesic": false, "type": "Polygon", "coordinates": [[[120.7379759305559, 15.46764171961199], [120.73977256112411, 15.46764171961199], [120.73977256112411, 15.48021813358966], [120.7379759305559, 15.48021813358966], [120.7379759305559, 15.483811394726146], [120.73617929998764, 15.483811394726146], [120.73617929998764, 15.482014764157896], [120.73258603885117, 15.482014764157896], [120.73258603885117, 15.48021813358966], [120.7307894082829, 15.48021813358966], [120.7307894082829, 15.478421503021423], [120.73617929998764, 15.478421503021423], [120.73617929998764, 15.476624872453186], [120.7379759305559, 15.476624872453186], [120.7379759305559, 15.47482824188495], [120.73438266941938, 15.47482824188495], [120.73438266941938, 15.4730316113167], [120.7379759305559, 15.4730316113167], [120.7379759305559, 15.46764171961199]]]}, "properties": {"date": "2015-10-26", "event": "koppu_2015"}}, {"type": "Feature", "geometry": {"geodesic": false, "type": "Polygon", "coordinates": [[[120.53495667634488, 15.758695871666717], [120.53854993748135, 15.758695871666717], [120.53854993748135, 15.764085763371426], [120.53495667634488, 15.764085763371426], [120.53675330691308, 15.771272285644386], [120.53495667634488, 15.771272285644386], [120.53495667634488, 15.774865546780859], [120.5313634152084, 15.774865546780859], [120.5313634152084, 15.771272285644386], [120.53316004577661, 15.771272285644386], [120.53316004577661, 15.76228913280319], [120.53495667634488, 15.76228913280319], [120.53495667634488, 15.758695871666717]]]}, "properties": {"date": "2015-10-26", "event": "koppu_2015"}}, {"type": "Feature", "geometry": {"geodesic": false, "type": "Polygon", "coordinates": [[[120.53316004577661, 15.744322827120797], [120.53495667634488, 15.744322827120797], [120.53495667634488, 15.747916088257284], [120.53854993748135, 15.747916088257284], [120.53854993748135, 15.746119457689034], [120.54393982918609, 15.746119457689034], [120.54393982918609, 15.751509349393757], [120.54034656804961, 15.751509349393757], [120.54034656804961, 15.74971271882552], [120.53854993748135, 15.74971271882552], [120.53854993748135, 15.753305979961993], [120.53495667634488, 15.753305979961993], [120.53675330691308, 15.74971271882552], [120.53316004577661, 15.74971271882552], [120.53316004577661, 15.744322827120797]]]}, "properties": {"date": "2015-10-26", "event": "koppu_2015"}}, {"type": "Feature", "geometry": {"geodesic": false, "type": "Polygon", "coordinates": [[[120.56370276543672, 15.701203693483066], [120.56729602657319, 15.701203693483066], [120.56729602657319, 15.706593585187775], [120.57268591827787, 15.706593585187775], [120.57268591827787, 15.710186846324262], [120.56549939600492, 15.710186846324262], [120.56549939600492, 15.706593585187775], [120.56370276543672, 15.706593585187775], [120.56370276543672, 15.701203693483066]]]}, "properties": {"date": "2015-10-26", "event": "koppu_2015"}}, {"type": "Feature", "geometry": {"geodesic": false, "type": "Polygon", "coordinates": [[[120.53316004577661, 15.7353396742796], [120.53854993748135, 15.7353396742796], [120.53854993748135, 15.737136304847851], [120.53675330691308, 15.737136304847851], [120.53675330691308, 15.740729565984324], [120.53495667634488, 15.740729565984324], [120.53316004577661, 15.744322827120797], [120.52956678464014, 15.744322827120797], [120.52956678464014, 15.740729565984324], [120.5313634152084, 15.740729565984324], [120.5313634152084, 15.737136304847851], [120.53316004577661, 15.737136304847851], [120.53316004577661, 15.7353396742796]]]}, "properties": {"date": "2015-10-26", "event": "koppu_2015"}}, {"type": "Feature", "geometry": {"geodesic": false, "type": "Polygon", "coordinates": [[[120.55112635145903, 15.683237387800673], [120.55651624316371, 15.683237387800673], [120.55651624316371, 15.686830648937146], [120.55831287373198, 15.686830648937146], [120.55831287373198, 15.688627279505397], [120.55651624316371, 15.688627279505397], [120.55651624316371, 15.69222054064187], [120.5547196125955, 15.69222054064187], [120.5547196125955, 15.690423910073633], [120.55112635145903, 15.690423910073633], [120.55112635145903, 15.683237387800673]], [[120.5547196125955, 15.686830648937146], [120.5547196125955, 15.688627279505397], [120.55292298202724, 15.688627279505397], [120.55292298202724, 15.686830648937146], [120.5547196125955, 15.686830648937146]]]}, "properties": {"date": "2015-10-26", "event": "koppu_2015"}}, {"type": "Feature", "geometry": {"geodesic": false, "type": "Polygon", "coordinates": [[[120.54214319861782, 15.753305979961993], [120.54393982918609, 15.753305979961993], [120.54393982918609, 15.75689924109848], [120.54753309032256, 15.75689924109848], [120.54753309032256, 15.758695871666717], [120.54393982918609, 15.758695871666717], [120.54393982918609, 15.764085763371426], [120.54034656804961, 15.764085763371426], [120.54034656804961, 15.75510261053023], [120.54214319861782, 15.75510261053023], [120.54214319861782, 15.753305979961993]]]}, "properties": {"date": "2015-10-26", "event": "koppu_2015"}}, {"type": "Feature", "geometry": {"geodesic": false, "type": "Polygon", "coordinates": [[[121.42608543819145, 16.806131492950072], [121.4332719604644, 16.806131492950072], [121.4332719604644, 16.80792812351831], [121.42967869932792, 16.80792812351831], [121.42967869932792, 16.80972475408656], [121.43147532989613, 16.80972475408656], [121.43147532989613, 16.813318015223032], [121.42967869932792, 16.813318015223032], [121.42967869932792, 16.811521384654796], [121.42608543819145, 16.813318015223032], [121.42608543819145, 16.80972475408656], [121.42428880762318, 16.80972475408656], [121.42428880762318, 16.80792812351831], [121.42608543819145, 16.80792812351831], [121.42608543819145, 16.806131492950072]]]}, "properties": {"date": "2015-10-26", "event": "koppu_2015"}}, {"type": "Feature", "geometry": {"geodesic": false, "type": "Polygon", "coordinates": [[[120.61400842134739, 15.694017171210106], [120.61939831305213, 15.694017171210106], [120.61939831305213, 15.695813801778343], [120.61760168248387, 15.695813801778343], [120.61760168248387, 15.697610432346579], [120.61939831305213, 15.697610432346579], [120.61939831305213, 15.701203693483066], [120.61760168248387, 15.701203693483066], [120.61760168248387, 15.69940706291483], [120.61400842134739, 15.69940706291483], [120.61400842134739, 15.697610432346579], [120.61041516021092, 15.697610432346579], [120.61041516021092, 15.695813801778343], [120.61400842134739, 15.695813801778343], [120.61400842134739, 15.694017171210106]]]}, "properties": {"date": "2015-10-26", "event": "koppu_2015"}}, {"type": "Feature", "geometry": {"geodesic": false, "type": "Polygon", "coordinates": [[[120.73617929998764, 15.505370961545012], [120.7379759305559, 15.505370961545012], [120.7379759305559, 15.512557483817957], [120.73617929998764, 15.512557483817957], [120.73617929998764, 15.508964222681485], [120.73438266941938, 15.508964222681485], [120.73438266941938, 15.510760853249721], [120.7307894082829, 15.508964222681485], [120.7307894082829, 15.505370961545012], [120.73438266941938, 15.505370961545012], [120.73438266941938, 15.507167592113248], [120.73617929998764, 15.507167592113248], [120.73617929998764, 15.505370961545012]]]}, "properties": {"date": "2015-10-26", "event": "koppu_2015"}}, {"type": "Feature", "geometry": {"geodesic": false, "type": "Polygon", "coordinates": [[[121.27696510102757, 15.496387808703815], [121.2805583621641, 15.496387808703815], [121.2805583621641, 15.499981069840288], [121.27876173159584, 15.499981069840288], [121.27876173159584, 15.507167592113248], [121.27516847045936, 15.505370961545012], [121.27516847045936, 15.503574330976775], [121.27696510102757, 15.503574330976775], [121.27696510102757, 15.496387808703815]]]}, "properties": {"date": "2015-10-26", "event": "koppu_2015"}}, {"type": "Feature", "geometry": {"geodesic": false, "type": "Polygon", "coordinates": [[[121.11886161102254, 15.632931731889983], [121.12604813329554, 15.632931731889983], [121.12604813329554, 15.634728362458219], [121.12245487215901, 15.634728362458219], [121.12245487215901, 15.636524993026455], [121.12425150272728, 15.636524993026455], [121.12604813329554, 15.640118254162942], [121.12245487215901, 15.640118254162942], [121.12245487215901, 15.638321623594692], [121.1206582415908, 15.638321623594692], [121.1206582415908, 15.634728362458219], [121.11886161102254, 15.634728362458219], [121.11886161102254, 15.632931731889983]]]}, "properties": {"date": "2015-10-26", "event": "koppu_2015"}}, {"type": "Feature", "geometry": {"geodesic": false, "type": "Polygon", "coordinates": [[[120.53675330691308, 15.69940706291483], [120.53854993748135, 15.69940706291483], [120.53854993748135, 15.703000324051303], [120.53675330691308, 15.703000324051303], [120.53675330691308, 15.704796954619539], [120.53316004577661, 15.706593585187775], [120.53316004577661, 15.703000324051303], [120.5313634152084, 15.703000324051303], [120.5313634152084, 15.701203693483066], [120.53675330691308, 15.701203693483066], [120.53675330691308, 15.69940706291483]]]}, "properties": {"date": "2015-10-26", "event": "koppu_2015"}}, {"type": "Feature", "geometry": {"geodesic": false, "type": "Polygon", "coordinates": [[[120.7379759305559, 15.451472044497834], [120.73977256112411, 15.451472044497834], [120.73977256112411, 15.458658566770794], [120.7379759305559, 15.458658566770794], [120.7379759305559, 15.46045519733903], [120.73438266941938, 15.46045519733903], [120.73617929998764, 15.456861936202557], [120.7379759305559, 15.456861936202557], [120.7379759305559, 15.451472044497834]]]}, "properties": {"date": "2015-10-26", "event": "koppu_2015"}}, {"type": "Feature", "geometry": {"geodesic": false, "type": "Polygon", "coordinates": [[[121.27516847045936, 15.507167592113248], [121.27876173159584, 15.508964222681485], [121.27876173159584, 15.510760853249721], [121.27696510102757, 15.510760853249721], [121.27876173159584, 15.514354114386208], [121.27516847045936, 15.514354114386208], [121.27516847045936, 15.510760853249721], [121.2733718398911, 15.510760853249721], [121.27516847045936, 15.507167592113248]]]}, "properties": {"date": "2015-10-26", "event": "koppu_2015"}}, {"type": "Feature", "geometry": {"geodesic": false, "type": "Polygon", "coordinates": [[[120.52597352350367, 15.75689924109848], [120.53316004577661, 15.75689924109848], [120.53316004577661, 15.760492502234953], [120.5313634152084, 15.760492502234953], [120.5313634152084, 15.758695871666717], [120.52777015407193, 15.758695871666717], [120.52777015407193, 15.76228913280319], [120.52597352350367, 15.76228913280319], [120.52597352350367, 15.75689924109848]]]}, "properties": {"date": "2015-10-26", "event": "koppu_2015"}}, {"type": "Feature", "geometry": {"geodesic": false, "type": "Polygon", "coordinates": [[[120.5547196125955, 15.704796954619539], [120.55831287373198, 15.704796954619539], [120.55831287373198, 15.710186846324262], [120.55651624316371, 15.710186846324262], [120.55651624316371, 15.708390215756026], [120.55292298202724, 15.708390215756026], [120.5547196125955, 15.704796954619539]]]}, "properties": {"date": "2015-10-26", "event": "koppu_2015"}}, {"type": "Feature", "geometry": {"geodesic": false, "type": "Polygon", "coordinates": [[[120.51160047895777, 15.778458807917346], [120.51519374009425, 15.778458807917346], [120.51519374009425, 15.782052069053819], [120.51699037066246, 15.782052069053819], [120.51699037066246, 15.783848699622055], [120.51339710952598, 15.783848699622055], [120.51339710952598, 15.782052069053819], [120.51160047895777, 15.782052069053819], [120.51160047895777, 15.778458807917346]]]}, "properties": {"date": "2015-10-26", "event": "koppu_2015"}}, {"type": "Feature", "geometry": {"geodesic": false, "type": "Polygon", "coordinates": [[[121.28235499273231, 15.489201286430855], [121.28415162330057, 15.489201286430855], [121.28415162330057, 15.496387808703815], [121.2805583621641, 15.496387808703815], [121.2805583621641, 15.494591178135579], [121.28235499273231, 15.494591178135579], [121.28235499273231, 15.489201286430855]]]}, "properties": {"date": "2015-10-26", "event": "koppu_2015"}}, {"type": "Feature", "geometry": {"geodesic": false, "type": "Polygon", "coordinates": [[[120.55831287373198, 15.695813801778343], [120.56190613486845, 15.697610432346579], [120.56010950430024, 15.701203693483066], [120.55651624316371, 15.69940706291483], [120.55831287373198, 15.695813801778343]]]}, "properties": {"date": "2015-10-26", "event": "koppu_2015"}}, {"type": "Feature", "geometry": {"geodesic": false, "type": "Polygon", "coordinates": [[[120.54034656804961, 15.706593585187775], [120.54393982918609, 15.706593585187775], [120.54393982918609, 15.711983476892499], [120.54034656804961, 15.710186846324262], [120.54034656804961, 15.706593585187775]]]}, "properties": {"date": "2015-10-26", "event": "koppu_2015"}}, {"type": "Feature", "geometry": {"geodesic": false, "type": "Polygon", "coordinates": [[[120.52058363179898, 15.76947565507615], [120.5223802623672, 15.76947565507615], [120.5223802623672, 15.773068916212623], [120.51878700123072, 15.774865546780859], [120.51878700123072, 15.771272285644386], [120.52058363179898, 15.771272285644386], [120.52058363179898, 15.76947565507615]]]}, "properties": {"date": "2015-10-26", "event": "koppu_2015"}}, {"type": "Feature", "geometry": {"geodesic": false, "type": "Polygon", "coordinates": [[[121.32547412637004, 16.73067300908403], [121.32906738750651, 16.73067300908403], [121.33086401807478, 16.734266270220516], [121.3272707569383, 16.734266270220516], [121.32547412637004, 16.73067300908403]]]}, "properties": {"date": "2015-10-26", "event": "koppu_2015"}}, {"type": "Feature", "geometry": {"geodesic": false, "type": "Polygon", "coordinates": [[[121.28415162330057, 15.485608025294383], [121.28774488443705, 15.485608025294383], [121.28594825386878, 15.489201286430855], [121.28415162330057, 15.489201286430855], [121.28415162330057, 15.485608025294383]]]}, "properties": {"date": "2015-10-26", "event": "koppu_2015"}}, {"type": "Feature", "geometry": {"geodesic": false, "type": "Polygon", "coordinates": [[[120.53495667634488, 15.706593585187775], [120.53854993748135, 15.706593585187775], [120.53854993748135, 15.710186846324262], [120.53495667634488, 15.708390215756026], [120.53495667634488, 15.706593585187775]]]}, "properties": {"date": "2015-10-26", "event": "koppu_2015"}}, {"type": "Feature", "geometry": {"geodesic": false, "type": "Polygon", "coordinates": [[[120.56010950430024, 15.710186846324262], [120.56549939600492, 15.710186846324262], [120.56549939600492, 15.711983476892499], [120.56010950430024, 15.711983476892499], [120.56010950430024, 15.710186846324262]]]}, "properties": {"date": "2015-10-26", "event": "koppu_2015"}}, {"type": "Feature", "geometry": {"geodesic": false, "type": "Polygon", "coordinates": [[[120.52058363179898, 15.75689924109848], [120.52417689293546, 15.75689924109848], [120.5223802623672, 15.760492502234953], [120.52058363179898, 15.760492502234953], [120.52058363179898, 15.75689924109848]]]}, "properties": {"date": "2015-10-26", "event": "koppu_2015"}}, {"type": "Feature", "geometry": {"geodesic": false, "type": "Polygon", "coordinates": [[[120.73438266941938, 15.449675413929597], [120.7379759305559, 15.449675413929597], [120.7379759305559, 15.451472044497834], [120.73438266941938, 15.451472044497834], [120.73438266941938, 15.449675413929597]]]}, "properties": {"date": "2015-10-26", "event": "koppu_2015"}}, {"type": "Feature", "geometry": {"geodesic": false, "type": "Polygon", "coordinates": [[[120.72719614714643, 15.503574330976775], [120.7307894082829, 15.503574330976775], [120.7307894082829, 15.505370961545012], [120.72719614714643, 15.505370961545012], [120.72719614714643, 15.503574330976775]]]}, "properties": {"date": "2015-10-26", "event": "koppu_2015"}}, {"type": "Feature", "geometry": {"geodesic": false, "type": "Polygon", "coordinates": [[[120.72539951657822, 15.505370961545012], [120.72719614714643, 15.505370961545012], [120.72719614714643, 15.508964222681485], [120.72539951657822, 15.508964222681485], [120.72539951657822, 15.505370961545012]]]}, "properties": {"date": "2015-10-26", "event": "koppu_2015"}}, {"type": "Feature", "geometry": {"geodesic": false, "type": "Polygon", "coordinates": [[[121.19791335602505, 15.588015967684], [121.20150661716153, 15.588015967684], [121.20150661716153, 15.589812598252237], [121.19791335602505, 15.589812598252237], [121.19791335602505, 15.588015967684]]]}, "properties": {"date": "2015-10-26", "event": "koppu_2015"}}, {"type": "Feature", "geometry": {"geodesic": false, "type": "Polygon", "coordinates": [[[121.19611672545685, 15.589812598252237], [121.19791335602505, 15.589812598252237], [121.19791335602505, 15.593405859388724], [121.19611672545685, 15.593405859388724], [121.19611672545685, 15.589812598252237]]]}, "properties": {"date": "2015-10-26", "event": "koppu_2015"}}, {"type": "Feature", "geometry": {"geodesic": false, "type": "Polygon", "coordinates": [[[120.54393982918609, 15.704796954619539], [120.54753309032256, 15.704796954619539], [120.54753309032256, 15.706593585187775], [120.54393982918609, 15.706593585187775], [120.54393982918609, 15.704796954619539]]]}, "properties": {"date": "2015-10-26", "event": "koppu_2015"}}, {"type": "Feature", "geometry": {"geodesic": false, "type": "Polygon", "coordinates": [[[120.56190613486845, 15.713780107460735], [120.56549939600492, 15.713780107460735], [120.56549939600492, 15.715576738028972], [120.56190613486845, 15.715576738028972], [120.56190613486845, 15.713780107460735]]]}, "properties": {"date": "2015-10-26", "event": "koppu_2015"}}, {"type": "Feature", "geometry": {"geodesic": false, "type": "Polygon", "coordinates": [[[120.52777015407193, 15.7353396742796], [120.5313634152084, 15.7353396742796], [120.5313634152084, 15.737136304847851], [120.52777015407193, 15.737136304847851], [120.52777015407193, 15.7353396742796]]]}, "properties": {"date": "2015-10-26", "event": "koppu_2015"}}, {"type": "Feature", "geometry": {"geodesic": false, "type": "Polygon", "coordinates": [[[120.52417689293546, 15.740729565984324], [120.52597352350367, 15.740729565984324], [120.52597352350367, 15.744322827120797], [120.52417689293546, 15.744322827120797], [120.52417689293546, 15.740729565984324]]]}, "properties": {"date": "2015-10-26", "event": "koppu_2015"}}, {"type": "Feature", "geometry": {"geodesic": false, "type": "Polygon", "coordinates": [[[120.53316004577661, 15.753305979961993], [120.53495667634488, 15.753305979961993], [120.53495667634488, 15.75689924109848], [120.53316004577661, 15.75689924109848], [120.53316004577661, 15.753305979961993]]]}, "properties": {"date": "2015-10-26", "event": "koppu_2015"}}, {"type": "Feature", "geometry": {"geodesic": false, "type": "Polygon", "coordinates": [[[121.32188086523357, 16.728876378515793], [121.32367749580183, 16.728876378515793], [121.32367749580183, 16.73246963965228], [121.32188086523357, 16.73246963965228], [121.32188086523357, 16.728876378515793]]]}, "properties": {"date": "2015-10-26", "event": "koppu_2015"}}]}